NORAD_CAT_ID,OBJECT_NAME,OBJECT_TYPE,EPOCH,MEAN_MOTION,ECCENTRICITY,INCLINATION,RA_OF_ASC_NODE,ARG_OF_PERICENTER,MEAN_ANOMALY,BSTAR,MEAN_MOTION_DOT,MEAN_MOTION_DDOT,TLE_LINE0,TLE_LINE1,TLE_LINE2,SEMIMAJOR_AXIS,PERIOD,APOGEE,PERIGEE,DECAYED
53539.0,STARLINK-4123,PAYLOAD,2022-09-11 22:00:00,15.55313431,0.0001537,53.2172,40.8528,42.5657,212.9865,-0.017866,-0.01115811,0.0,0 STARLINK-4123,1 53539U 22101N   22254.91667824 -.01115811  00000-0 -17866-1 0  9998,2 53539  53.2172  40.8528 0001537  42.5657 212.9865 15.55313431  1307,6779.379,92.586,402.286,400.202,0.0
53539.0,STARLINK-4123,PAYLOAD,2022-09-12 04:00:00,15.54711449,0.0001788,53.2176,39.6496,35.3405,180.5107,-0.018285,-0.01116781,0.0,0 STARLINK-4123,1 53539U 22101N   22255.16667824 -.01116781  00000-0 -18285-1 0  9999,2 53539  53.2176  39.6496 0001788  35.3405 180.5107 15.54711449  3693,6781.129,92.622,404.206,401.781,0.0
53539.0,STARLINK-4123,PAYLOAD,2022-09-12 12:00:00,15.5390922,0.000186,53.2178,38.0493,29.8663,252.2038,-0.018844,-0.01117363,0.0,0 STARLINK-4123,1 53539U 22101N   22255.50001157 -.01117363  00000-0 -18844-1 0  9996,2 53539  53.2178  38.0493 0001860  29.8663 252.2038 15.53909220  1301,6783.462,92.67,406.589,404.066,0.0
53539.0,STARLINK-4123,PAYLOAD,2022-09-12 20:00:01,15.5310476,0.000196,53.2175,36.4523,24.1901,323.1993,-0.01936,-0.01114923,0.0,0 STARLINK-4123,1 53539U 22101N   22255.83335648 -.01114923  00000-0 -19360-1 0  9990,2 53539  53.2175  36.4523 0001960  24.1901 323.1993 15.53104760  3797,6785.804,92.718,408.999,406.339,0.0
53539.0,STARLINK-4123,PAYLOAD,2022-09-12 22:00:00,15.5292886,0.0001748,53.217,36.051,35.1133,58.3628,-0.020104,-0.01146835,0.0,0 STARLINK-4123,1 53539U 22101N   22255.91667824 -.01146835  00000-0 -20104-1 0  9998,2 53539  53.2170  36.0510 0001748  35.1133  58.3628 15.52928860  1308,6786.316999999999,92.728,409.36800000000005,406.996,0.0
53539.0,STARLINK-4123,PAYLOAD,2022-09-13 14:00:01,15.51299171,0.0001584,53.2174,32.8613,42.8876,177.7334,-0.020731,-0.01117773,0.0,0 STARLINK-4123,1 53539U 22101N   22256.58334491 -.01117773  00000-0 -20731-1 0  9998,2 53539  53.2174  32.8613 0001584  42.8876 177.7334 15.51299171  1302,6791.069,92.825,414.01,411.858,0.0
53539.0,STARLINK-4123,PAYLOAD,2022-09-13 16:00:00,15.51076077,0.0001465999999999,53.2173,32.4632,41.7843,284.4612,-0.019894,-0.01068935,0.0,0 STARLINK-4123,1 53539U 22101N   22256.66667824 -.01068935  00000-0 -19894-1 0  9999,2 53539  53.2173  32.4632 0001466  41.7843 284.4612 15.51076077  3922,6791.72,92.839,414.581,412.589,0.0
53539.0,STARLINK-4123,PAYLOAD,2022-09-13 20:00:01,15.50563628,0.000179,53.2174,31.6667,27.6409,149.6822,-0.013311,-0.00717134,0.0,0 STARLINK-4123,1 53539U 22101N   22256.83334491 -.00717134  00000-0 -13311-1 0  9998,2 53539  53.2174  31.6667 0001790  27.6409 149.6822 15.50563628  3953,6793.215999999999,92.869,416.297,413.865,0.0
53539.0,STARLINK-4123,PAYLOAD,2022-09-13 22:00:00,15.50370471,0.0001706999999999,53.2171,31.2679,31.499,251.256,-0.0107409999999999,-0.00577076,0.0,0 STARLINK-4123,1 53539U 22101N   22256.91667824 -.00577076  00000-0 -10741-1 0  9999,2 53539  53.2171  31.2679 0001707  31.4990 251.2560 15.50370471  1303,6793.781,92.881,416.805,414.486,0.0
53539.0,STARLINK-4123,PAYLOAD,2022-09-14 04:00:00,15.49916703,0.0001723,53.2175,30.0716,32.0867,206.6754,-0.00091488,-0.00052092,0.0,0 STARLINK-4123,1 53539U 22101N   22257.16667824 -.00052092  00000-0 -91488-3 0  9992,2 53539  53.2175  30.0716 0001723  32.0867 206.6754 15.49916703  4005,6795.107,92.908,418.142,415.801,0.0
53539.0,STARLINK-4123,PAYLOAD,2022-09-14 14:00:01,15.49986221,0.0001606,53.2169,28.0714,31.8126,13.1166,-0.0022314,-0.00125539,0.0,0 STARLINK-4123,1 53539U 22101N   22257.58334491 -.00125539  00000-0 -22314-2 0  9997,2 53539  53.2169  28.0714 0001606  31.8126  13.1166 15.49986221  1308,6794.903,92.904,417.86,415.677,0.0
53539.0,STARLINK-4123,PAYLOAD,2022-09-14 20:00:01,15.49875815,0.0001805,53.217,26.8773,31.6305,329.0542,0.00096273,0.00054553,0.0,0 STARLINK-4123,1 53539U 22101N   22257.83334491  .00054553  00000-0  96273-3 0  9996,2 53539  53.2170  26.8773 0001805  31.6305 329.0542 15.49875815  4103,6795.226,92.911,418.318,415.864,0.0
53539.0,STARLINK-4123,PAYLOAD,2022-09-14 22:00:00,15.49912468,0.0001841,53.2169,26.4785,33.4004,72.5078,-0.00020339,-0.00011989,0.0,0 STARLINK-4123,1 53539U 22101N   22257.91667824 -.00011989  00000-0 -20339-3 0  9992,2 53539  53.2169  26.4785 0001841  33.4004  72.5078 15.49912468  1305,6795.119000000002,92.908,418.235,415.733,0.0
53539.0,STARLINK-4123,PAYLOAD,2022-09-15 04:00:00,15.49900548,0.0001705,53.2172,25.2822,39.1945,22.4275,-0.00087272,-0.00049698,0.0,0 STARLINK-4123,1 53539U 22101N   22258.16667824 -.00049698  00000-0 -87272-3 0  9997,2 53539  53.2172  25.2822 0001705  39.1945  22.4275 15.49900548  4160,6795.154,92.909,418.177,415.86,0.0
53539.0,STARLINK-4123,PAYLOAD,2022-09-15 14:00:01,15.49867682,0.0002053,53.2171,23.2921,41.4497,186.3708,-1.4506e-05,-1.275e-05,0.0,0 STARLINK-4123,1 53539U 22101N   22258.58334491 -.00001275  00000-0 -14506-4 0  9994,2 53539  53.2171  23.2921 0002053  41.4497 186.3708 15.49867682  1307,6795.25,92.911,418.51,415.72,0.0
53539.0,STARLINK-4123,PAYLOAD,2022-09-15 22:00:00,15.49885419,0.0002096,53.2167,21.6992,38.5951,250.1119,2.1259e-05,7.55e-06,0.0,0 STARLINK-4123,1 53539U 22101N   22258.91667824  .00000755  00000-0  21259-4 0  9993,2 53539  53.2167  21.6992 0002096  38.5951 250.1119 15.49885419  4274,6795.198,92.91,418.487,415.639,0.0
53539.0,STARLINK-4123,PAYLOAD,2022-09-16 14:00:01,15.49918379,0.0002051,53.2165,18.5134,39.2854,11.2441,-0.0012580999999999,-0.00071298,0.0,0 STARLINK-4123,1 53539U 22101N   22259.58334491 -.00071298  00000-0 -12581-2 0  9996,2 53539  53.2165  18.5134 0002051  39.2854  11.2441 15.49918379  1303,6795.102,92.908,418.36,415.573,0.0
53539.0,STARLINK-4123,PAYLOAD,2022-09-16 22:00:00,15.49873577,0.0001979,53.216,16.9201,34.1071,77.35,-0.00084561,-0.00048134,0.0,0 STARLINK-4123,1 53539U 22101N   22259.91667824 -.00048134  00000-0 -84561-3 0  9993,2 53539  53.2160  16.9201 0001979  34.1071  77.3500 15.49873577  1307,6795.233,92.911,418.442,415.753,0.0
53539.0,STARLINK-4123,PAYLOAD,2022-09-17 06:00:00,15.49825438,0.0001743,53.2163,15.327,38.3074,134.0268,0.00094461,0.00053414,0.0,0 STARLINK-4123,1 53539U 22101N   22260.25001157  .00053414  00000-0  94461-3 0  9998,2 53539  53.2163  15.3270 0001743  38.3074 134.0268 15.49825438  4484,6795.373000000001,92.914,418.423,416.054,0.0
53539.0,STARLINK-4123,PAYLOAD,2022-09-17 14:00:01,15.49982273,0.0001955999999999,53.217,13.7411,40.6763,192.502,-0.0079492,-0.0042928,0.0,0 STARLINK-4123,1 53539U 22101N   22260.58334491 -.00429280  00000-0 -79492-2 0  9990,2 53539  53.2170  13.7411 0001956  40.6763 192.5020 15.49982273  1302,6794.915,92.904,418.109,415.451,0.0
53539.0,STARLINK-4123,PAYLOAD,2022-09-17 22:00:00,15.49844963,0.0001537,53.217,12.1532,43.1815,250.8174,-0.02077,-0.0106802,0.0,0 STARLINK-4123,1 53539U 22101N   22260.91667824 -.01068020  00000-0 -20770-1 0  9992,2 53539  53.2170  12.1532 0001537  43.1815 250.8174 15.49844963  1301,6795.316,92.913,418.226,416.137,0.0
53539.0,STARLINK-4123,PAYLOAD,2022-09-18 14:00:01,15.48310189,0.0001434,53.2174,8.9768,26.0249,27.8662,-0.024136,-0.01182404,0.0,0 STARLINK-4123,1 53539U 22101N   22261.58335648 -.01182404  00000-0 -24136-1 0  9995,2 53539  53.2174   8.9768 0001434  26.0249  27.8662 15.48310189  4692,6799.806,93.005,422.646,420.696,0.0
53539.0,STARLINK-4123,PAYLOAD,2022-09-18 22:00:00,15.47469548,0.0001702,53.2173,7.393,37.0103,75.3167,-0.023648,-0.01129647,0.0,0 STARLINK-4123,1 53539U 22101N   22261.91667824 -.01129647  00000-0 -23648-1 0  9993,2 53539  53.2173   7.3930 0001702  37.0103  75.3167 15.47469548  1300,6802.268,93.055,425.291,422.976,0.0
53539.0,STARLINK-4123,PAYLOAD,2022-09-19 06:00:02,15.46666894,0.0001641,53.2175,5.8085,46.1284,123.7816,-0.024326,-0.01129908,0.0,0 STARLINK-4123,1 53539U 22101N   22262.25002315 -.01129908  00000-0 -24326-1 0  9993,2 53539  53.2175   5.8085 0001641  46.1284 123.7816 15.46666894  4796,6804.621999999999,93.103,427.603,425.37,0.0
53539.0,STARLINK-4123,PAYLOAD,2022-09-19 14:00:01,15.45862859,0.0001792,53.2175,4.2293,40.5551,185.8432,-0.024964,-0.0112788,0.0,0 STARLINK-4123,1 53539U 22101N   22262.58334491 -.01127880  00000-0 -24964-1 0  9997,2 53539  53.2175   4.2293 0001792  40.5551 185.8432 15.45862859  1307,6806.981,93.152,430.066,427.626,0.0
53539.0,STARLINK-4123,PAYLOAD,2022-09-19 22:00:00,15.45062457,0.0001439,53.2173,2.6491,48.5473,233.4395,-0.025775,-0.0113231,0.0,0 STARLINK-4123,1 53539U 22101N   22262.91667824 -.01132310  00000-0 -25775-1 0  9998,2 53539  53.2173   2.6491 0001439  48.5473 233.4395 15.45062457  1300,6809.331999999999,93.2,432.176,430.217,0.0
53539.0,STARLINK-4123,PAYLOAD,2022-09-20 06:00:00,15.44256272,0.000145,53.2176,1.0707,42.6001,294.0118,-0.026337,-0.01126023,0.0,0 STARLINK-4123,1 53539U 22101N   22263.25001157 -.01126023  00000-0 -26337-1 0  9996,2 53539  53.2176   1.0707 0001450  42.6001 294.0118 15.44256272  4949,6811.701,93.249,434.554,432.579,0.0
53539.0,STARLINK-4123,PAYLOAD,2022-09-20 14:00:01,15.43456848,0.0001819,53.2176,359.4972,30.9326,359.336,-0.027218,-0.01131959,0.0,0 STARLINK-4123,1 53539U 22101N   22263.58334491 -.01131959  00000-0 -27218-1 0  9995,2 53539  53.2176 359.4972 0001819  30.9326 359.3360 15.43456848  1303,6814.053000000001,93.297,437.158,434.679,0.0
53539.0,STARLINK-4123,PAYLOAD,2022-09-20 22:00:01,15.42651726,0.0001587,53.2173,357.9226,40.2015,42.8271,-0.027869,-0.011281,0.0,0 STARLINK-4123,1 53539U 22101N   22263.91668981 -.01128100  00000-0 -27869-1 0  9992,2 53539  53.2173 357.9226 0001587  40.2015  42.8271 15.42651726  1302,6816.424,93.346,439.371,437.207,0.0
